GHGSAT-C1               
1 46278U 20061G   26188.84948873  .00028153  00000+0  20751-3 0  9998
2 46278  97.2093 274.6751 0000583 169.2347 190.8930 15.73004533326720
GHGSAT-C2               
1 47509U 21006DA  26187.99457000  .00004917  00000+0  13344-3 0  9990
2 47509  97.2137 234.9202 0006888  97.4024 262.8004 15.38040944302896
GHGSAT-C3               
1 52737U 22057F   26188.84569403  .00004651  00000+0  14116-3 0  9995
2 52737  97.6623 335.2822 0006871  57.6965 302.4941 15.34616555228707
GHGSAT-C5               
1 52744U 22057N   26188.88493072  .00004520  00000+0  13732-3 0  9993
2 52744  97.6709 336.9210 0007526  54.6500 305.5445 15.34594019228713
GHGSAT-C4               
1 52746U 22057Q   26188.80115226  .00004401  00000+0  13375-3 0  9990
2 52746  97.6548 334.0465 0006832  43.4817 316.6963 15.34603130228705
GHGSAT-C8               
1 56186U 23054J   26188.90494256  .00011817  00000+0  18687-3 0  9994
2 56186  97.2961  98.4873 0004037  28.0636 332.0835 15.53609077181658
GHGSAT-C6               
1 56204U 23054AC  26188.87104902  .00011225  00000+0  17774-3 0  9996
2 56204  97.3023  99.1498 0004274 345.4323  14.6806 15.53586732181666
GHGSAT-C7               
1 56209U 23054AH  26188.85421354  .00007474  00000+0  13344-3 0  9992
2 56209  97.2977  97.4918 0005732 337.4582  22.6417 15.50334466181595
GHGSAT-C12              
1 64529U 25135B   26188.71710499  .00002601  00000+0  12248-3 0  9993
2 64529  97.4762 303.3450 0006468 101.0333 259.1630 15.20413210 57946
GHGSAT-C13              
1 64548U 25135W   26188.77526119  .00004035  00000+0  18327-3 0  9991
2 64548  97.4791 304.0044 0002189  75.3722 284.7757 15.21349142 57988
