{"fetched_at":"2026-07-08T07:03:54.529Z","source":"https://celestrak.org/NORAD/elements/gp.php?NAME=GHGSAT&FORMAT=JSON","constellation":"ghgsat","records":[{"OBJECT_NAME":"GHGSAT-C1","OBJECT_ID":"2020-061G","EPOCH":"2026-07-07T20:23:15.826272","CLASSIFICATION_TYPE":"U","MEAN_MOTION":15.73004533,"ECCENTRICITY":0.0000583,"INCLINATION":97.2093,"RA_OF_ASC_NODE":274.6751,"ARG_OF_PERICENTER":169.2347,"MEAN_ANOMALY":190.893,"EPHEMERIS_TYPE":0,"NORAD_CAT_ID":46278,"ELEMENT_SET_NO":999,"REV_AT_EPOCH":32672,"BSTAR":0.00020751,"MEAN_MOTION_DOT":0.00028153,"MEAN_MOTION_DDOT":0},{"OBJECT_NAME":"GHGSAT-C2","OBJECT_ID":"2021-006DA","EPOCH":"2026-07-06T23:52:10.848000","CLASSIFICATION_TYPE":"U","MEAN_MOTION":15.38040944,"ECCENTRICITY":0.0006888,"INCLINATION":97.2137,"RA_OF_ASC_NODE":234.9202,"ARG_OF_PERICENTER":97.4024,"MEAN_ANOMALY":262.8004,"EPHEMERIS_TYPE":0,"NORAD_CAT_ID":47509,"ELEMENT_SET_NO":999,"REV_AT_EPOCH":30289,"BSTAR":0.00013344028,"MEAN_MOTION_DOT":0.00004917,"MEAN_MOTION_DDOT":0},{"OBJECT_NAME":"GHGSAT-C3","OBJECT_ID":"2022-057F","EPOCH":"2026-07-07T20:17:47.964192","CLASSIFICATION_TYPE":"U","MEAN_MOTION":15.34616555,"ECCENTRICITY":0.0006871,"INCLINATION":97.6623,"RA_OF_ASC_NODE":335.2822,"ARG_OF_PERICENTER":57.6965,"MEAN_ANOMALY":302.4941,"EPHEMERIS_TYPE":0,"NORAD_CAT_ID":52737,"ELEMENT_SET_NO":999,"REV_AT_EPOCH":22870,"BSTAR":0.00014116,"MEAN_MOTION_DOT":0.00004651,"MEAN_MOTION_DDOT":0},{"OBJECT_NAME":"GHGSAT-C5","OBJECT_ID":"2022-057N","EPOCH":"2026-07-07T21:14:18.014208","CLASSIFICATION_TYPE":"U","MEAN_MOTION":15.34594019,"ECCENTRICITY":0.0007526,"INCLINATION":97.6709,"RA_OF_ASC_NODE":336.921,"ARG_OF_PERICENTER":54.65,"MEAN_ANOMALY":305.5445,"EPHEMERIS_TYPE":0,"NORAD_CAT_ID":52744,"ELEMENT_SET_NO":999,"REV_AT_EPOCH":22871,"BSTAR":0.00013732,"MEAN_MOTION_DOT":0.0000452,"MEAN_MOTION_DDOT":0},{"OBJECT_NAME":"GHGSAT-C4","OBJECT_ID":"2022-057Q","EPOCH":"2026-07-07T19:13:39.555264","CLASSIFICATION_TYPE":"U","MEAN_MOTION":15.3460313,"ECCENTRICITY":0.0006832,"INCLINATION":97.6548,"RA_OF_ASC_NODE":334.0465,"ARG_OF_PERICENTER":43.4817,"MEAN_ANOMALY":316.6963,"EPHEMERIS_TYPE":0,"NORAD_CAT_ID":52746,"ELEMENT_SET_NO":999,"REV_AT_EPOCH":22870,"BSTAR":0.00013375,"MEAN_MOTION_DOT":0.00004401,"MEAN_MOTION_DDOT":0},{"OBJECT_NAME":"GHGSAT-C8","OBJECT_ID":"2023-054J","EPOCH":"2026-07-07T21:43:07.037184","CLASSIFICATION_TYPE":"U","MEAN_MOTION":15.53609077,"ECCENTRICITY":0.0004037,"INCLINATION":97.2961,"RA_OF_ASC_NODE":98.4873,"ARG_OF_PERICENTER":28.0636,"MEAN_ANOMALY":332.0835,"EPHEMERIS_TYPE":0,"NORAD_CAT_ID":56186,"ELEMENT_SET_NO":999,"REV_AT_EPOCH":18165,"BSTAR":0.00018687,"MEAN_MOTION_DOT":0.00011817,"MEAN_MOTION_DDOT":0},{"OBJECT_NAME":"GHGSAT-C6","OBJECT_ID":"2023-054AC","EPOCH":"2026-07-07T20:54:18.635328","CLASSIFICATION_TYPE":"U","MEAN_MOTION":15.53586732,"ECCENTRICITY":0.0004274,"INCLINATION":97.3023,"RA_OF_ASC_NODE":99.1498,"ARG_OF_PERICENTER":345.4323,"MEAN_ANOMALY":14.6806,"EPHEMERIS_TYPE":0,"NORAD_CAT_ID":56204,"ELEMENT_SET_NO":999,"REV_AT_EPOCH":18166,"BSTAR":0.00017774,"MEAN_MOTION_DOT":0.00011225,"MEAN_MOTION_DDOT":0},{"OBJECT_NAME":"GHGSAT-C7","OBJECT_ID":"2023-054AH","EPOCH":"2026-07-07T20:30:04.049856","CLASSIFICATION_TYPE":"U","MEAN_MOTION":15.50334466,"ECCENTRICITY":0.0005732,"INCLINATION":97.2977,"RA_OF_ASC_NODE":97.4918,"ARG_OF_PERICENTER":337.4582,"MEAN_ANOMALY":22.6417,"EPHEMERIS_TYPE":0,"NORAD_CAT_ID":56209,"ELEMENT_SET_NO":999,"REV_AT_EPOCH":18159,"BSTAR":0.00013344,"MEAN_MOTION_DOT":0.00007474,"MEAN_MOTION_DDOT":0},{"OBJECT_NAME":"GHGSAT-C12","OBJECT_ID":"2025-135B","EPOCH":"2026-07-07T17:12:37.871136","CLASSIFICATION_TYPE":"U","MEAN_MOTION":15.2041321,"ECCENTRICITY":0.0006468,"INCLINATION":97.4762,"RA_OF_ASC_NODE":303.345,"ARG_OF_PERICENTER":101.0333,"MEAN_ANOMALY":259.163,"EPHEMERIS_TYPE":0,"NORAD_CAT_ID":64529,"ELEMENT_SET_NO":999,"REV_AT_EPOCH":5794,"BSTAR":0.00012248,"MEAN_MOTION_DOT":0.00002601,"MEAN_MOTION_DDOT":0},{"OBJECT_NAME":"GHGSAT-C13","OBJECT_ID":"2025-135W","EPOCH":"2026-07-07T18:36:22.566816","CLASSIFICATION_TYPE":"U","MEAN_MOTION":15.21349142,"ECCENTRICITY":0.0002189,"INCLINATION":97.4791,"RA_OF_ASC_NODE":304.0044,"ARG_OF_PERICENTER":75.3722,"MEAN_ANOMALY":284.7757,"EPHEMERIS_TYPE":0,"NORAD_CAT_ID":64548,"ELEMENT_SET_NO":999,"REV_AT_EPOCH":5798,"BSTAR":0.00018327,"MEAN_MOTION_DOT":0.00004035,"MEAN_MOTION_DDOT":0}]}
